start=new Date('2022-03-19T00:00:00.000Z').valueOf();
sats=[{"TIME_SYSTEM":"UTC","APOAPSIS":"422.327","REF_FRAME":"TEME","EPOCH":"2022-03-18T22:00:00.999936","ECCENTRICITY":"0.00025680","EPHEMERIS_TYPE":"0","LAUNCH_DATE":"2022-01-06","MEAN_MOTION_DOT":"-0.00718605","CENTER_NAME":"EARTH","MEAN_ANOMALY":"59.1945","TLE_LINE1":"1 50824U 22001X   22077.91667824 -.00718605  00000-0 -14259-1 0  9996","MEAN_MOTION_DDOT":"0.0000000000000","DECAY_DATE":null,"RCS_SIZE":"LARGE","ELEMENT_SET_NO":"999","NORAD_CAT_ID":"50824","COUNTRY_CODE":"US","ARG_OF_PERICENTER":"17.9054","CLASSIFICATION_TYPE":"U","RA_OF_ASC_NODE":"210.0490","OBJECT_NAME":"STARLINK-3340","SITE":"AFETR","BSTAR":"-0.01425900000000","REV_AT_EPOCH":"1245","MEAN_ELEMENT_THEORY":"SGP4","OBJECT_TYPE":"PAYLOAD","FILE":"3364691","GP_ID":"199081444","SEMIMAJOR_AXIS":"6798.716","PERIOD":"92.982","PERIAPSIS":"418.835","OBJECT_ID":"2022-001X","INCLINATION":"53.2171","TLE_LINE2":"2 50824  53.2171 210.0490 0002568  17.9054  59.1945 15.48682468 12450","MEAN_MOTION":"15.48682468"},{"MEAN_MOTION_DOT":"-0.00720365","CENTER_NAME":"EARTH","APOAPSIS":"422.786","REF_FRAME":"TEME","TIME_SYSTEM":"UTC","LAUNCH_DATE":"2022-01-06","ECCENTRICITY":"0.00021470","EPOCH":"2022-03-18T22:00:00.999936","EPHEMERIS_TYPE":"0","DECAY_DATE":null,"MEAN_MOTION_DDOT":"0.0000000000000","MEAN_ANOMALY":"38.7734","TLE_LINE1":"1 50825U 22001Y   22077.91667824 -.00720365  00000-0 -14427-1 0  9990","ARG_OF_PERICENTER":"22.1056","RA_OF_ASC_NODE":"210.0503","CLASSIFICATION_TYPE":"U","OBJECT_NAME":"STARLINK-3332","COUNTRY_CODE":"US","BSTAR":"-0.01442700000000","SITE":"AFETR","RCS_SIZE":"LARGE","ELEMENT_SET_NO":"999","NORAD_CAT_ID":"50825","PERIOD":"92.998","MEAN_MOTION":"15.48428140","PERIAPSIS":"419.866","INCLINATION":"53.2171","OBJECT_ID":"2022-001Y","TLE_LINE2":"2 50825  53.2171 210.0503 0002147  22.1056  38.7734 15.48428140 12453","OBJECT_TYPE":"PAYLOAD","FILE":"3364704","GP_ID":"199080959","REV_AT_EPOCH":"1245","MEAN_ELEMENT_THEORY":"SGP4","SEMIMAJOR_AXIS":"6799.461"},{"MEAN_ANOMALY":"91.0933","TLE_LINE1":"1 50826U 22001Z   22077.91667824 -.00479230  00000-0 -92449-2 0  9994","MEAN_MOTION_DDOT":"0.0000000000000","DECAY_DATE":null,"TIME_SYSTEM":"UTC","REF_FRAME":"TEME","APOAPSIS":"421.409","EPOCH":"2022-03-18T22:00:00.999936","ECCENTRICITY":"0.00025990","EPHEMERIS_TYPE":"0","LAUNCH_DATE":"2022-01-06","MEAN_MOTION_DOT":"-0.00479230","CENTER_NAME":"EARTH","MEAN_ELEMENT_THEORY":"SGP4","REV_AT_EPOCH":"1246","OBJECT_TYPE":"PAYLOAD","GP_ID":"199080967","FILE":"3364704","SEMIMAJOR_AXIS":"6797.777","PERIOD":"92.963","PERIAPSIS":"417.875","OBJECT_ID":"2022-001Z","INCLINATION":"53.2171","TLE_LINE2":"2 50826  53.2171 210.0436 0002599  17.8796  91.0933 15.49003417 12463","MEAN_MOTION":"15.49003417","RCS_SIZE":"LARGE","ELEMENT_SET_NO":"999","NORAD_CAT_ID":"50826","COUNTRY_CODE":"US","ARG_OF_PERICENTER":"17.8796","CLASSIFICATION_TYPE":"U","RA_OF_ASC_NODE":"210.0436","OBJECT_NAME":"STARLINK-3337","SITE":"AFETR","BSTAR":"-0.00924490000000"},{"RCS_SIZE":"LARGE","ELEMENT_SET_NO":"999","NORAD_CAT_ID":"50827","ARG_OF_PERICENTER":"18.9075","CLASSIFICATION_TYPE":"U","OBJECT_NAME":"STARLINK-3329","RA_OF_ASC_NODE":"210.0513","COUNTRY_CODE":"US","BSTAR":"-0.01463000000000","SITE":"AFETR","OBJECT_TYPE":"PAYLOAD","FILE":"3364692","GP_ID":"199080978","MEAN_ELEMENT_THEORY":"SGP4","REV_AT_EPOCH":"1245","SEMIMAJOR_AXIS":"6800.583","PERIOD":"93.021","MEAN_MOTION":"15.48044990","OBJECT_ID":"2022-001AA","PERIAPSIS":"420.884","INCLINATION":"53.2171","TLE_LINE2":"2 50827  53.2171 210.0513 0002300  18.9075  17.5216 15.48044990 12458","REF_FRAME":"TEME","APOAPSIS":"424.012","TIME_SYSTEM":"UTC","LAUNCH_DATE":"2022-01-06","ECCENTRICITY":"0.00023000","EPOCH":"2022-03-18T22:00:00.999936","EPHEMERIS_TYPE":"0","MEAN_MOTION_DOT":"-0.00720730","CENTER_NAME":"EARTH","MEAN_MOTION_DDOT":"0.0000000000000","TLE_LINE1":"1 50827U 22001AA  22077.91667824 -.00720730  00000-0 -14630-1 0  9994","MEAN_ANOMALY":"17.5216","DECAY_DATE":null},{"CENTER_NAME":"EARTH","MEAN_MOTION_DOT":"-0.00718967","LAUNCH_DATE":"2022-01-06","EPHEMERIS_TYPE":"0","ECCENTRICITY":"0.00027470","EPOCH":"2022-03-18T22:00:00.999936","APOAPSIS":"424.169","REF_FRAME":"TEME","TIME_SYSTEM":"UTC","DECAY_DATE":null,"MEAN_MOTION_DDOT":"0.0000000000000","TLE_LINE1":"1 50828U 22001AB  22077.91667824 -.00718967  00000-0 -14564-1 0  9990","MEAN_ANOMALY":"31.7960","BSTAR":"-0.01456400000000","SITE":"AFETR","CLASSIFICATION_TYPE":"U","RA_OF_ASC_NODE":"210.0426","OBJECT_NAME":"STARLINK-3290","ARG_OF_PERICENTER":"14.8078","COUNTRY_CODE":"US","ELEMENT_SET_NO":"999","NORAD_CAT_ID":"50828","RCS_SIZE":"LARGE","MEAN_MOTION":"15.48095061","TLE_LINE2":"2 50828  53.2171 210.0426 0002747  14.8078  31.7960 15.48095061 12465","PERIAPSIS":"420.433","INCLINATION":"53.2171","OBJECT_ID":"2022-001AB","PERIOD":"93.018","SEMIMAJOR_AXIS":"6800.436","FILE":"3364692","GP_ID":"199080983","OBJECT_TYPE":"PAYLOAD","REV_AT_EPOCH":"1246","MEAN_ELEMENT_THEORY":"SGP4"},{"NORAD_CAT_ID":"50829","ELEMENT_SET_NO":"999","RCS_SIZE":"LARGE","BSTAR":"-0.01477200000000","SITE":"AFETR","ARG_OF_PERICENTER":"14.7243","OBJECT_NAME":"STARLINK-3294","CLASSIFICATION_TYPE":"U","RA_OF_ASC_NODE":"210.0515","COUNTRY_CODE":"US","SEMIMAJOR_AXIS":"6801.331","OBJECT_TYPE":"PAYLOAD","GP_ID":"199081471","FILE":"3364692","REV_AT_EPOCH":"1245","MEAN_ELEMENT_THEORY":"SGP4","MEAN_MOTION":"15.47789625","INCLINATION":"53.2171","PERIAPSIS":"421.441","OBJECT_ID":"2022-001AC","TLE_LINE2":"2 50829  53.2171 210.0515 0002580  14.7243   5.2128 15.47789625 12459","PERIOD":"93.036","LAUNCH_DATE":"2022-01-06","EPOCH":"2022-03-18T22:00:00.999936","ECCENTRICITY":"0.00025800","EPHEMERIS_TYPE":"0","REF_FRAME":"TEME","APOAPSIS":"424.950","TIME_SYSTEM":"UTC","CENTER_NAME":"EARTH","MEAN_MOTION_DOT":"-0.00721251","MEAN_MOTION_DDOT":"0.0000000000000","TLE_LINE1":"1 50829U 22001AC  22077.91667824 -.00721251  00000-0 -14772-1 0  9992","MEAN_ANOMALY":"5.2128","DECAY_DATE":null},{"MEAN_MOTION_DDOT":"0.0000000000000","MEAN_ANOMALY":"195.0306","TLE_LINE1":"1 50830U 22001AD  22077.91667824  .00004880  00000-0  24478-3 0  9990","DECAY_DATE":null,"LAUNCH_DATE":"2022-01-06","EPHEMERIS_TYPE":"0","EPOCH":"2022-03-18T22:00:00.999936","ECCENTRICITY":"0.00012680","APOAPSIS":"509.523","REF_FRAME":"TEME","TIME_SYSTEM":"UTC","CENTER_NAME":"EARTH","MEAN_MOTION_DOT":"0.00004880","SEMIMAJOR_AXIS":"6886.784","FILE":"3364693","GP_ID":"199080991","OBJECT_TYPE":"PAYLOAD","REV_AT_EPOCH":"1236","MEAN_ELEMENT_THEORY":"SGP4","MEAN_MOTION":"15.19070830","TLE_LINE2":"2 50830  53.2126 216.4476 0001268  16.7242 195.0306 15.19070830 12366","PERIAPSIS":"507.776","INCLINATION":"53.2126","OBJECT_ID":"2022-001AD","PERIOD":"94.795","NORAD_CAT_ID":"50830","ELEMENT_SET_NO":"999","RCS_SIZE":"LARGE","BSTAR":"0.00024478000000","SITE":"AFETR","CLASSIFICATION_TYPE":"U","RA_OF_ASC_NODE":"216.4476","OBJECT_NAME":"STARLINK-3278","ARG_OF_PERICENTER":"16.7242","COUNTRY_CODE":"US"},{"CENTER_NAME":"EARTH","MEAN_MOTION_DOT":"-0.00416264","ECCENTRICITY":"0.00026920","EPOCH":"2022-03-18T22:00:00.999936","EPHEMERIS_TYPE":"0","LAUNCH_DATE":"2022-01-06","TIME_SYSTEM":"UTC","REF_FRAME":"TEME","APOAPSIS":"421.323","DECAY_DATE":null,"TLE_LINE1":"1 50831U 22001AE  22077.91667824 -.00416264  00000-0 -79511-2 0  9993","MEAN_ANOMALY":"96.8136","MEAN_MOTION_DDOT":"0.0000000000000","SITE":"AFETR","BSTAR":"-0.00795110000000","COUNTRY_CODE":"US","ARG_OF_PERICENTER":"18.0907","OBJECT_NAME":"STARLINK-3299","CLASSIFICATION_TYPE":"U","RA_OF_ASC_NODE":"210.0425","ELEMENT_SET_NO":"999","NORAD_CAT_ID":"50831","RCS_SIZE":"LARGE","PERIAPSIS":"417.663","INCLINATION":"53.2172","OBJECT_ID":"2022-001AE","TLE_LINE2":"2 50831  53.2172 210.0425 0002692  18.0907  96.8136 15.49054511 12457","MEAN_MOTION":"15.49054511","PERIOD":"92.960","SEMIMAJOR_AXIS":"6797.628","REV_AT_EPOCH":"1245","MEAN_ELEMENT_THEORY":"SGP4","OBJECT_TYPE":"PAYLOAD","FILE":"3364693","GP_ID":"199081490"},{"REF_FRAME":"TEME","APOAPSIS":"518.067","TIME_SYSTEM":"UTC","LAUNCH_DATE":"2022-01-06","EPOCH":"2022-03-18T22:00:00.999936","ECCENTRICITY":"0.00017620","EPHEMERIS_TYPE":"0","MEAN_MOTION_DOT":"-0.00665349","CENTER_NAME":"EARTH","MEAN_MOTION_DDOT":"0.0000000000000","TLE_LINE1":"1 50832U 22001AF  22077.91667824 -.00665349  00000-0 -36165-1 0  9991","MEAN_ANOMALY":"173.1962","DECAY_DATE":null,"RCS_SIZE":"LARGE","NORAD_CAT_ID":"50832","ELEMENT_SET_NO":"999","ARG_OF_PERICENTER":"46.0015","CLASSIFICATION_TYPE":"U","OBJECT_NAME":"STARLINK-3328","RA_OF_ASC_NODE":"216.4890","COUNTRY_CODE":"US","BSTAR":"-0.03616500000000","SITE":"AFETR","OBJECT_TYPE":"PAYLOAD","FILE":"3364757","GP_ID":"199104748","REV_AT_EPOCH":"365","MEAN_ELEMENT_THEORY":"SGP4","SEMIMAJOR_AXIS":"6894.987","PERIOD":"94.964","MEAN_MOTION":"15.16360977","PERIAPSIS":"515.637","OBJECT_ID":"2022-001AF","INCLINATION":"53.2171","TLE_LINE2":"2 50832  53.2171 216.4890 0001762  46.0015 173.1962 15.16360977  3659"},{"TLE_LINE1":"1 50833U 22001AG  22077.91667824 -.00605071  00000-0 -11870-1 0  9994","MEAN_ANOMALY":"75.1886","MEAN_MOTION_DDOT":"0.0000000000000","DECAY_DATE":null,"TIME_SYSTEM":"UTC","APOAPSIS":"421.176","REF_FRAME":"TEME","EPOCH":"2022-03-18T22:00:00.999936","ECCENTRICITY":"0.00021890","EPHEMERIS_TYPE":"0","LAUNCH_DATE":"2022-01-06","MEAN_MOTION_DOT":"-0.00605071","CENTER_NAME":"EARTH","MEAN_ELEMENT_THEORY":"SGP4","REV_AT_EPOCH":"1248","OBJECT_TYPE":"PAYLOAD","FILE":"3364694","GP_ID":"199080997","SEMIMAJOR_AXIS":"6797.823","PERIOD":"92.964","PERIAPSIS":"418.200","OBJECT_ID":"2022-001AG","INCLINATION":"53.2167","TLE_LINE2":"2 50833  53.2167 210.0455 0002189  25.8260  75.1886 15.48987657 12485","MEAN_MOTION":"15.48987657","RCS_SIZE":"LARGE","ELEMENT_SET_NO":"999","NORAD_CAT_ID":"50833","COUNTRY_CODE":"US","ARG_OF_PERICENTER":"25.8260","CLASSIFICATION_TYPE":"U","OBJECT_NAME":"STARLINK-3316","RA_OF_ASC_NODE":"210.0455","SITE":"AFETR","BSTAR":"-0.01187000000000"}];
